CZ-4B R/B               
1 28059U 03049C   18256.78266959  .00000002  00000-0  12395-4 0  9990
2 28059  98.5094 155.4137 0049180 303.6299  97.3226 14.52536213789534
CZ-2C R/B               
1 28222U 04012C   18256.90935271  .00000671  00000-0  44422-4 0  9995
2 28222  97.5839 211.8308 0049340  71.0671 353.4450 15.09810922789065
SL-16 R/B               
1 28353U 04021B   18256.89560079  .00000276  00000-0  16944-3 0  9996
2 28353  71.0008 206.9415 0006862 242.2886 117.7540 14.14216559736302
CZ-2C R/B               
1 28480U 04046B   18257.18033269 -.00000012  00000-0  11163-4 0  9991
2 28480  98.1701 328.6268 0141203 324.8345  60.7891 14.25681041718925
ARIANE 5 R/B            
1 28499U 04049H   18257.21501009  .00000072  00000-0  16301-4 0  9994
2 28499  98.0582 347.2064 0092165 188.1602 224.3644 14.79919959741146
CZ-2D R/B               
1 28738U 05024B   18257.50141557  .00000526  00000-0  34679-4 0  9996
2 28738  97.4474 289.1078 0010704 235.3490 124.6732 15.11616166724437
SUZAKU (ASTRO-EII)      
1 28773U 05025A   18257.21449826  .00001056  00000-0  48223-4 0  9993
2 28773  31.3818 229.9447 0004757 228.0107 132.0135 15.16686104726326
ALOS (DAICHI)           
1 28931U 06002A   18257.44417486  .00000096  00000-0  27444-4 0  9992
2 28931  97.8172 266.3145 0001405  15.5437 344.5813 14.62527207673854
H-2A R/B                
1 28932U 06002B   18256.89923260  .00000155  00000-0  20841-4 0  9993
2 28932  98.2391 204.0218 0087920 264.8403 131.1297 14.91786978685337
AKARI (ASTRO-F)         
1 28939U 06005A   18256.78436700  .00003156  00000-0  92204-4 0  9995
2 28939  98.1951 151.4243 0101907  49.7468 311.2628 15.31174400682478
RESURS-DK 1             
1 29228U 06021A   18257.54923973  .00000097  00000-0  14672-4 0  9997
2 29228  69.9371  21.8874 0005421 329.9157  30.1691 15.02355219676336
GENESIS 1               
1 29252U 06029A   18256.92643007  .00000357  00000-0  27764-4 0  9995
2 29252  64.5025 242.7680 0046608 279.6560  79.9299 15.17412169670580
CZ-4B R/B               
1 29507U 06046C   18257.15312745 -.00000490  00000-0 -33047-4 0  9996
2 29507  97.7777 270.0341 0051295 157.0085 203.3451 15.00319933649106
CZ-2C R/B               
1 31114U 07010B   18257.21315864  .00000000  00000-0  19209-4 0  9996
2 31114  98.3477 140.0581 0059382 337.8928  21.9690 14.19277802591919
COSMO-SKYMED 1          
1 31598U 07023A   18257.51984363 -.00000324  00000-0 -34139-4 0  9995
2 31598  97.8903  79.8261 0001140  88.1435 271.9926 14.82151485609743
GENESIS 2               
1 31789U 07028A   18257.45847560  .00000409  00000-0  31092-4 0  9999
2 31789  64.5026 280.6819 0027494 318.1222  41.7797 15.16647756617784
COSMOS 2428             
1 31792U 07029A   18257.23565476 -.00000030  00000-0  97533-5 0  9997
2 31792  70.9689 179.9627 0010038 295.9883  64.0203 14.12559903578172
SL-16 R/B               
1 31793U 07029B   18256.91405059  .00000298  00000-0  18057-3 0  9999
2 31793  70.9763 156.0865 0002037 257.9937 174.9326 14.14406142578832
KORONAS-FOTON           
1 33504U 09003A   18256.77266079  .00000564  00000-0  28194-4 0  9996
2 33504  82.4431 142.1045 0018953 346.9561  13.1178 15.15233550530151
H-2A R/B                
1 38341U 12025E   18256.90744587  .00000151  00000-0  25153-4 0  9992
2 38341  98.4260   3.7979 0056663 137.5493 223.0123 14.83792028342076
CUSAT 2 & FALCON 9 R/B  
1 39271U 13055G   18257.06114253  .00005069  00000-0  12792-3 0  9995
2 39271  80.9680 234.9489 0610048 293.9943  59.8537 14.42550723257949
ALOS-2                  
1 39766U 14029A   18257.54010386  .00000122  00000-0  23172-4 0  9991
2 39766  97.9232 353.3470 0001458  86.6060 273.5318 14.79471849232789
SL-27 R/B               
1 40354U 14084B   18256.91404895  .00000852  00000-0  22735-4 0  9993
2 40354  74.7368 276.4071 0037322  68.8436 291.6757 15.39211129209240
ASTRO-H (HITOMI)        
1 41337U 16012A   18256.90592022  .00000301  00000-0  17581-4 0  9999
2 41337  31.0053 123.2301 0012499 202.8160 157.1920 14.98499764141033
TIANGONG-2              
1 41765U 16057A   18257.45664352  .00004722  00000-0  62633-4 0  9999
2 41765  42.7839 169.5456 0006287 170.0084 173.1134 15.59449764113950
SHENZHOU-11 MODULE      
1 41868U 16061G   18256.93616898  .00012048  00000-0  86126-4 0  9995
2 41868  42.7943 133.5001 0003290 278.0094 275.0687 15.73708558104251
